start=new Date('2023-04-11T00:00:00.000Z').valueOf();
sats=[{"FILE":"3885363","ECCENTRICITY":"0.00030670","TLE_LINE1":"1 49148U 21082U   23100.91028790  .00000656  00000-0  62736-4 0  9996","ARG_OF_PERICENTER":"268.0314","COUNTRY_CODE":"US","PERIOD":"96.107","INCLINATION":"70.0001","EPHEMERIS_TYPE":"0","RA_OF_ASC_NODE":"76.6076","LAUNCH_DATE":"2021-09-14","RCS_SIZE":"LARGE","SEMIMAJOR_AXIS":"6950.182","OBJECT_TYPE":"PAYLOAD","SITE":"AFWTR","GP_ID":"229878934","NORAD_CAT_ID":"49148","REF_FRAME":"TEME","MEAN_ELEMENT_THEORY":"SGP4","APOAPSIS":"574.179","BSTAR":"0.00006273600000","MEAN_ANOMALY":"92.0494","PERIAPSIS":"569.915","TLE_LINE2":"2 49148  70.0001  76.6076 0003067 268.0314  92.0494 14.98333552 87127","TIME_SYSTEM":"UTC","MEAN_MOTION_DDOT":"0.0000000000000","CENTER_NAME":"EARTH","OBJECT_ID":"2021-082U","DECAY_DATE":null,"OBJECT_NAME":"STARLINK-3048","REV_AT_EPOCH":"8712","MEAN_MOTION_DOT":"0.00000656","CLASSIFICATION_TYPE":"U","EPOCH":"2023-04-10T21:50:48.874560","MEAN_MOTION":"14.98333552","ELEMENT_SET_NO":"999"},{"PERIOD":"96.107","INCLINATION":"69.9984","ECCENTRICITY":"0.00030530","TLE_LINE1":"1 49149U 21082V   23100.47658273  .00001008  00000-0  92232-4 0  9999","ARG_OF_PERICENTER":"268.6114","COUNTRY_CODE":"US","FILE":"3885210","NORAD_CAT_ID":"49149","REF_FRAME":"TEME","SEMIMAJOR_AXIS":"6950.175","RCS_SIZE":"LARGE","OBJECT_TYPE":"PAYLOAD","SITE":"AFWTR","GP_ID":"229853201","LAUNCH_DATE":"2021-09-14","RA_OF_ASC_NODE":"97.7089","EPHEMERIS_TYPE":"0","TIME_SYSTEM":"UTC","MEAN_MOTION_DDOT":"0.0000000000000","CENTER_NAME":"EARTH","TLE_LINE2":"2 49149  69.9984  97.7089 0003053 268.6114  91.4695 14.98335684 87777","APOAPSIS":"574.162","BSTAR":"0.00009223200000","PERIAPSIS":"569.918","MEAN_ANOMALY":"91.4695","MEAN_ELEMENT_THEORY":"SGP4","MEAN_MOTION":"14.98335684","ELEMENT_SET_NO":"999","CLASSIFICATION_TYPE":"U","EPOCH":"2023-04-10T11:26:16.747872","MEAN_MOTION_DOT":"0.00001008","DECAY_DATE":null,"OBJECT_ID":"2021-082V","OBJECT_NAME":"STARLINK-3053","REV_AT_EPOCH":"8777"},{"MEAN_ANOMALY":"90.3597","PERIAPSIS":"569.865","BSTAR":"0.00008792600000","APOAPSIS":"574.234","MEAN_ELEMENT_THEORY":"SGP4","CENTER_NAME":"EARTH","MEAN_MOTION_DDOT":"0.0000000000000","TIME_SYSTEM":"UTC","TLE_LINE2":"2 49150  69.9983  97.8914 0003143 269.7202  90.3597 14.98332814 87755","MEAN_MOTION_DOT":"0.00000956","REV_AT_EPOCH":"8775","OBJECT_NAME":"STARLINK-3104","DECAY_DATE":null,"OBJECT_ID":"2021-082W","ELEMENT_SET_NO":"999","MEAN_MOTION":"14.98332814","CLASSIFICATION_TYPE":"U","EPOCH":"2023-04-10T09:44:08.158272","FILE":"3885195","INCLINATION":"69.9983","PERIOD":"96.107","COUNTRY_CODE":"US","ARG_OF_PERICENTER":"269.7202","ECCENTRICITY":"0.00031430","TLE_LINE1":"1 49150U 21082W   23100.40564998  .00000956  00000-0  87926-4 0  9999","LAUNCH_DATE":"2021-09-14","EPHEMERIS_TYPE":"0","RA_OF_ASC_NODE":"97.8914","REF_FRAME":"TEME","NORAD_CAT_ID":"49150","GP_ID":"229847972","SITE":"AFWTR","OBJECT_TYPE":"PAYLOAD","SEMIMAJOR_AXIS":"6950.184","RCS_SIZE":"LARGE"},{"MEAN_MOTION":"14.98333663","ELEMENT_SET_NO":"999","CLASSIFICATION_TYPE":"U","EPOCH":"2023-04-10T08:31:21.975744","MEAN_MOTION_DOT":"0.00000984","OBJECT_ID":"2021-082X","DECAY_DATE":null,"OBJECT_NAME":"STARLINK-3102","REV_AT_EPOCH":"8873","TIME_SYSTEM":"UTC","MEAN_MOTION_DDOT":"0.0000000000000","CENTER_NAME":"EARTH","TLE_LINE2":"2 49151  70.0009  58.0163 0002859 266.3857  93.6975 14.98333663 88733","APOAPSIS":"574.034","BSTAR":"0.00009021800000","MEAN_ANOMALY":"93.6975","PERIAPSIS":"570.060","MEAN_ELEMENT_THEORY":"SGP4","NORAD_CAT_ID":"49151","REF_FRAME":"TEME","RCS_SIZE":"LARGE","SEMIMAJOR_AXIS":"6950.182","OBJECT_TYPE":"PAYLOAD","SITE":"AFWTR","GP_ID":"229848720","LAUNCH_DATE":"2021-09-14","EPHEMERIS_TYPE":"0","RA_OF_ASC_NODE":"58.0163","PERIOD":"96.107","INCLINATION":"70.0009","TLE_LINE1":"1 49151U 21082X   23100.35511546  .00000984  00000-0  90218-4 0  9994","ECCENTRICITY":"0.00028590","ARG_OF_PERICENTER":"266.3857","COUNTRY_CODE":"US","FILE":"3885195"},{"MEAN_MOTION_DDOT":"0.0000000000000","TIME_SYSTEM":"UTC","CENTER_NAME":"EARTH","TLE_LINE2":"2 49152  70.0014  56.5582 0002859 271.8497  88.2335 14.98337951 88744","APOAPSIS":"574.020","BSTAR":"0.00009239100000","MEAN_ANOMALY":"88.2335","PERIAPSIS":"570.046","MEAN_ELEMENT_THEORY":"SGP4","MEAN_MOTION":"14.98337951","ELEMENT_SET_NO":"999","EPOCH":"2023-04-10T22:20:31.362720","CLASSIFICATION_TYPE":"U","MEAN_MOTION_DOT":"0.00001010","DECAY_DATE":null,"OBJECT_ID":"2021-082Y","OBJECT_NAME":"STARLINK-3081","REV_AT_EPOCH":"8874","PERIOD":"96.106","INCLINATION":"70.0014","ECCENTRICITY":"0.00028590","TLE_LINE1":"1 49152U 21082Y   23100.93091855  .00001010  00000-0  92391-4 0  9990","ARG_OF_PERICENTER":"271.8497","COUNTRY_CODE":"US","FILE":"3885363","REF_FRAME":"TEME","NORAD_CAT_ID":"49152","SEMIMAJOR_AXIS":"6950.168","RCS_SIZE":"LARGE","SITE":"AFWTR","OBJECT_TYPE":"PAYLOAD","GP_ID":"229878435","LAUNCH_DATE":"2021-09-14","EPHEMERIS_TYPE":"0","RA_OF_ASC_NODE":"56.5582"},{"MEAN_MOTION":"14.98332854","ELEMENT_SET_NO":"999","EPOCH":"2023-04-10T21:08:25.551456","CLASSIFICATION_TYPE":"U","MEAN_MOTION_DOT":"0.00000524","OBJECT_NAME":"STARLINK-3072","REV_AT_EPOCH":"8882","DECAY_DATE":null,"OBJECT_ID":"2021-082Z","MEAN_MOTION_DDOT":"0.0000000000000","TIME_SYSTEM":"UTC","CENTER_NAME":"EARTH","TLE_LINE2":"2 49153  70.0008  56.6969 0003029 265.1851  94.8962 14.98332854 88823","MEAN_ANOMALY":"94.8962","PERIAPSIS":"569.944","APOAPSIS":"574.154","BSTAR":"0.00005174100000","MEAN_ELEMENT_THEORY":"SGP4","NORAD_CAT_ID":"49153","REF_FRAME":"TEME","GP_ID":"229879174","RCS_SIZE":"LARGE","SEMIMAJOR_AXIS":"6950.184","OBJECT_TYPE":"PAYLOAD","SITE":"AFWTR","LAUNCH_DATE":"2021-09-14","RA_OF_ASC_NODE":"56.6969","EPHEMERIS_TYPE":"0","INCLINATION":"70.0008","PERIOD":"96.107","COUNTRY_CODE":"US","ECCENTRICITY":"0.00030290","TLE_LINE1":"1 49153U 21082Z   23100.88085129  .00000524  00000-0  51741-4 0  9995","ARG_OF_PERICENTER":"265.1851","FILE":"3885363"},{"MEAN_ELEMENT_THEORY":"SGP4","MEAN_ANOMALY":"88.3265","PERIAPSIS":"569.976","APOAPSIS":"574.114","BSTAR":"0.00002017500000","TLE_LINE2":"2 49154  70.0000  76.6216 0002977 271.7553  88.3265 14.98334167 88201","MEAN_MOTION_DDOT":"0.0000000000000","TIME_SYSTEM":"UTC","CENTER_NAME":"EARTH","OBJECT_NAME":"STARLINK-3068","REV_AT_EPOCH":"8820","OBJECT_ID":"2021-082AA","DECAY_DATE":null,"MEAN_MOTION_DOT":"0.00000148","CLASSIFICATION_TYPE":"U","EPOCH":"2023-04-10T21:44:48.495840","MEAN_MOTION":"14.98334167","ELEMENT_SET_NO":"999","FILE":"3885363","COUNTRY_CODE":"US","TLE_LINE1":"1 49154U 21082AA  23100.90611685  .00000148  00000-0  20175-4 0  9990","ECCENTRICITY":"0.00029770","ARG_OF_PERICENTER":"271.7553","INCLINATION":"70.0000","PERIOD":"96.107","EPHEMERIS_TYPE":"0","RA_OF_ASC_NODE":"76.6216","LAUNCH_DATE":"2021-09-14","GP_ID":"229877933","RCS_SIZE":"LARGE","SEMIMAJOR_AXIS":"6950.180","SITE":"AFWTR","OBJECT_TYPE":"PAYLOAD","REF_FRAME":"TEME","NORAD_CAT_ID":"49154"},{"FILE":"3885363","TLE_LINE1":"1 49155U 21082AB  23100.87667715  .00000888  00000-0  82221-4 0  9993","ECCENTRICITY":"0.00029950","ARG_OF_PERICENTER":"271.1878","COUNTRY_CODE":"US","PERIOD":"96.107","INCLINATION":"69.9995","EPHEMERIS_TYPE":"0","RA_OF_ASC_NODE":"56.7123","LAUNCH_DATE":"2021-09-14","RCS_SIZE":"LARGE","SEMIMAJOR_AXIS":"6950.179","SITE":"AFWTR","OBJECT_TYPE":"PAYLOAD","GP_ID":"229878180","NORAD_CAT_ID":"49155","REF_FRAME":"TEME","MEAN_ELEMENT_THEORY":"SGP4","APOAPSIS":"574.126","BSTAR":"0.00008222100000","MEAN_ANOMALY":"88.8937","PERIAPSIS":"569.963","TLE_LINE2":"2 49155  69.9995  56.7123 0002995 271.1878  88.8937 14.98334437 88696","MEAN_MOTION_DDOT":"0.0000000000000","TIME_SYSTEM":"UTC","CENTER_NAME":"EARTH","DECAY_DATE":null,"OBJECT_ID":"2021-082AB","OBJECT_NAME":"STARLINK-3060","REV_AT_EPOCH":"8869","MEAN_MOTION_DOT":"0.00000888","CLASSIFICATION_TYPE":"U","EPOCH":"2023-04-10T21:02:24.905760","MEAN_MOTION":"14.98334437","ELEMENT_SET_NO":"999"},{"APOAPSIS":"573.848","BSTAR":"-0.00005386400000","MEAN_ANOMALY":"100.2200","PERIAPSIS":"570.211","MEAN_ELEMENT_THEORY":"SGP4","MEAN_MOTION_DDOT":"0.0000000000000","TIME_SYSTEM":"UTC","CENTER_NAME":"EARTH","TLE_LINE2":"2 49156  70.0025  56.7559 0002616 259.8664 100.2200 14.98339216 88695","MEAN_MOTION_DOT":"-0.00000736","DECAY_DATE":null,"OBJECT_ID":"2021-082AC","OBJECT_NAME":"STARLINK-3085","REV_AT_EPOCH":"8869","MEAN_MOTION":"14.98339216","ELEMENT_SET_NO":"999","CLASSIFICATION_TYPE":"U","EPOCH":"2023-04-10T20:32:22.144704","FILE":"3885363","PERIOD":"96.106","INCLINATION":"70.0025","ECCENTRICITY":"0.00026160","TLE_LINE1":"1 49156U 21082AC  23100.85581186 -.00000736  00000-0 -53864-4 0  9994","ARG_OF_PERICENTER":"259.8664","COUNTRY_CODE":"US","LAUNCH_DATE":"2021-09-14","EPHEMERIS_TYPE":"0","RA_OF_ASC_NODE":"56.7559","REF_FRAME":"TEME","NORAD_CAT_ID":"49156","RCS_SIZE":"LARGE","SEMIMAJOR_AXIS":"6950.164","OBJECT_TYPE":"PAYLOAD","SITE":"AFWTR","GP_ID":"229878935"},{"REF_FRAME":"TEME","NORAD_CAT_ID":"49157","GP_ID":"229878675","RCS_SIZE":"LARGE","SEMIMAJOR_AXIS":"6950.245","OBJECT_TYPE":"PAYLOAD","SITE":"AFWTR","LAUNCH_DATE":"2021-09-14","EPHEMERIS_TYPE":"0","RA_OF_ASC_NODE":"76.6364","INCLINATION":"69.9997","PERIOD":"96.108","COUNTRY_CODE":"US","ECCENTRICITY":"0.00027810","TLE_LINE1":"1 49157U 21082AD  23100.90194834  .00004530  00000-0  38741-3 0  9991","ARG_OF_PERICENTER":"266.1239","FILE":"3885363","MEAN_MOTION":"14.98313106","ELEMENT_SET_NO":"999","EPOCH":"2023-04-10T21:38:48.336576","CLASSIFICATION_TYPE":"U","MEAN_MOTION_DOT":"0.00004530","OBJECT_NAME":"STARLINK-3051","REV_AT_EPOCH":"8822","OBJECT_ID":"2021-082AD","DECAY_DATE":null,"MEAN_MOTION_DDOT":"0.0000000000000","TIME_SYSTEM":"UTC","CENTER_NAME":"EARTH","TLE_LINE2":"2 49157  69.9997  76.6364 0002781 266.1239  93.9602 14.98313106 88221","MEAN_ANOMALY":"93.9602","PERIAPSIS":"570.177","APOAPSIS":"574.043","BSTAR":"0.00038741000000","MEAN_ELEMENT_THEORY":"SGP4"}];
